{
    "links": {
        "self": "http://www.neowsapp.com/rest/v1/neo/3842777?api_key=iIulBulltgU6a56xZRHN4H3l9WmuAYTsLGpBGhQ2"
    },
    "id": "3842777",
    "neo_reference_id": "3842777",
    "name": "(2019 LZ1)",
    "designation": "2019 LZ1",
    "nasa_jpl_url": "http://ssd.jpl.nasa.gov/sbdb.cgi?sstr=3842777",
    "absolute_magnitude_h": 19.8,
    "estimated_diameter": {
        "kilometers": {
            "estimated_diameter_min": 0.2914439045,
            "estimated_diameter_max": 0.6516883822
        },
        "meters": {
            "estimated_diameter_min": 291.4439045349,
            "estimated_diameter_max": 651.6883821679
        },
        "miles": {
            "estimated_diameter_min": 0.1810947904,
            "estimated_diameter_max": 0.4049402617
        },
        "feet": {
            "estimated_diameter_min": 956.1808197541,
            "estimated_diameter_max": 2138.0853117517
        }
    },
    "is_potentially_hazardous_asteroid": true,
    "close_approach_data": [
        {
            "close_approach_date": "2019-05-18",
            "close_approach_date_full": "2019-May-18 10:10",
            "epoch_date_close_approach": 1558174200000,
            "relative_velocity": {
                "kilometers_per_second": "45.7403303471",
                "kilometers_per_hour": "164665.1892495276",
                "miles_per_hour": "102316.5449534079"
            },
            "miss_distance": {
                "astronomical": "0.3357129257",
                "lunar": "130.5923280973",
                "kilometers": "50221938.616188259",
                "miles": "31206465.5930616142"
            },
            "orbiting_body": "Earth"
        }
    ],
    "orbital_data": {
        "orbit_id": "5",
        "orbit_determination_date": "2019-07-23 05:58:49",
        "first_observation_date": "2019-05-31",
        "last_observation_date": "2019-06-14",
        "data_arc_in_days": 14,
        "observations_used": 29,
        "orbit_uncertainty": "9",
        "minimum_orbit_intersection": ".00174765",
        "jupiter_tisserand_invariant": "2.748",
        "epoch_osculation": "2458641.5",
        "eccentricity": ".9286232235186682",
        "semi_major_axis": "2.300515010291045",
        "inclination": "9.613567343785419",
        "ascending_node_longitude": "221.0643396524025",
        "orbital_period": "1274.488830719923",
        "perihelion_distance": ".1642033456814926",
        "perihelion_argument": "223.0050733653182",
        "aphelion_distance": "4.436826674900598",
        "perihelion_time": "2458591.130387615382",
        "mean_anomaly": "14.22771233563469",
        "mean_motion": ".2824661866959211",
        "equinox": "J2000",
        "orbit_class": {
            "orbit_class_type": "APO",
            "orbit_class_description": "Near-Earth asteroid orbits which cross the Earth’s orbit similar to that of 1862 Apollo",
            "orbit_class_range": "a (semi-major axis) > 1.0 AU; q (perihelion) < 1.017 AU"
        }
    },
    "is_sentry_object": false
}